ONEWEB-0492             
1 54114U 22138B   24324.54437877  .00000111  00000+0  24514-3 0  9992
2 54114  87.9188  59.2393 0001580  95.5659 264.5654 13.19722807101916
ONEWEB-0495             
1 54115U 22138C   24324.29481410  .00000191  00000+0  44439-3 0  9993
2 54115  87.9188  59.3004 0002051  78.8174 281.3189 13.19722410100994
ONEWEB-0497             
1 54116U 22138D   24324.53488911  .00000072  00000+0  14677-3 0  9993
2 54116  87.9186  59.2341 0001679  97.9103 262.2221 13.19728403101012
ONEWEB-0499             
1 54117U 22138E   24324.51752313  .00000117  00000+0  25913-3 0  9997
2 54117  87.9193  59.2458 0002223 100.1738 259.9645 13.19727416101899
ONEWEB-0500             
1 54118U 22138F   24324.52068396  .00000124  00000+0  27780-3 0  9992
2 54118  87.9188  59.2363 0001646 101.2418 258.8900 13.19727711101906
ONEWEB-0501             
1 54119U 22138G   24324.55069673  .00000070  00000+0  14347-3 0  9990
2 54119  87.9187  59.2268 0001984  87.8552 272.2808 13.19727395101010
ONEWEB-0502             
1 54120U 22138H   24324.53648649  .00000076  00000+0  15857-3 0  9999
2 54120  87.9186  59.2167 0001986  93.6067 266.5293 13.19722858101032
ONEWEB-0503             
1 54121U 22138J   24324.22216486  .00000147  00000+0  33527-3 0  9999
2 54121  87.9184  59.2852 0002076 107.4180 252.7180 13.19724792100987
